IRIDIUM 71 [-]          
1 25320U 98026B   18066.27850139  .00000088  00000-0  22118-4 0  9997
2 25320  86.3982 130.8706 0002631 143.2455 216.8924 14.39136013 41302
IRIDIUM 70 [+]          
1 25342U 98032A   18066.51359674  .00000069  00000-0  17482-4 0  9990
2 25342  86.3946 114.2598 0002109  97.4829 262.6606 14.34221514 36841
IRIDIUM 72 [+]          
1 25343U 98032B   18066.50091046  .00000083  00000-0  22487-4 0  9993
2 25343  86.3939 113.8593 0002197  96.4392 263.7054 14.34221630 36843
IRIDIUM 73 [-]          
1 25344U 98032C   18065.61760915  .00000103  00000-0  21789-4 0  9990
2 25344  86.4383  92.0719 0001659  92.1424 267.9970 14.49098743 45258
IRIDIUM 75 [+]          
1 25346U 98032E   18066.50725375  .00000072  00000-0  18576-4 0  9997
2 25346  86.3943 114.1185 0002217  95.7355 264.4093 14.34221531 37411
IRIDIUM 76 [+]          
1 25432U 98048B   18066.37120936  .00000154  00000-0  48020-4 0  9995
2 25432  86.3991 145.5070 0002057  95.6834 264.4597 14.34225822 23314
IRIDIUM 82 [-]          
1 25467U 98051A   18066.48716902  .00000937  00000-0  68321-4 0  9998
2 25467  86.3968 260.3564 0182133 171.8350 188.5915 14.89759672 26031
IRIDIUM 81 [+]          
1 25468U 98051B   18066.51280852  .00000011  00000-0 -30792-5 0  9999
2 25468  86.4194 271.7424 0001977  78.6208 281.5212 14.38609406 20702
IRIDIUM 80 [+]          
1 25469U 98051C   18066.48535696 -.00000054  00000-0 -26306-4 0  9998
2 25469  86.3923 272.0054 0002452  95.8236 324.8820 14.34217355 20571
IRIDIUM 2 [-]           
1 25527U 98066A   18066.46930622  .00001131  00000-0  54985-4 0  9994
2 25527  85.5283 236.7372 0008351 188.1349 171.9757 15.17219817 57781
IRIDIUM 86 [+]          
1 25528U 98066B   18066.48926248 -.00000072  00000-0 -32648-4 0  9993
2 25528  86.3932 239.6732 0001911 117.2010 242.9381 14.34214541 17108
IRIDIUM 84 [+]          
1 25530U 98066D   18066.52097778 -.00000069  00000-0 -31872-4 0  9992
2 25530  86.3934 239.8292 0001938  87.3430 272.7988 14.34214434 14740
IRIDIUM 83 [+]          
1 25531U 98066E   18066.48295434 -.00000062  00000-0 -29213-4 0  9996
2 25531  86.3937 239.9814 0002015  87.2319 272.9108 14.34213387 12095
IRIDIUM 20 [+]          
1 25577U 98074A   18066.33314440  .00000158  00000-0  49378-4 0  9996
2 25577  86.3990 145.4412 0002199  99.1036 261.0409 14.34216079  6154
IRIDIUM 11 [+]          
1 25578U 98074B   18066.36751045  .00000145  00000-0  44760-4 0  9992
2 25578  86.3997 145.6418 0001990  80.1791 325.4810 14.34216986 15121
IRIDIUM 14 [+]          
1 25777U 99032A   18066.24720614  .00000073  00000-0  19034-4 0  9999
2 25777  86.3940 114.0544 0002158  97.9297 262.2144 14.34221691992383
IRIDIUM 21 [+]          
1 25778U 99032B   18066.49456807  .00000075  00000-0  19590-4 0  9996
2 25778  86.3941 113.9663 0002198  91.8663 268.2785 14.34221670985857
IRIDIUM 91 [+]          
1 27372U 02005A   18066.39368920  .00000175  00000-0  55375-4 0  9991
2 27372  86.4022 177.1817 0001711 102.2151 257.9236 14.34214936849359
IRIDIUM 90 [B]          
1 27373U 02005B   18066.49473183  .00000091  00000-0  13628-4 0  9993
2 27373  86.4422 239.9678 0095486 357.3910   2.6787 14.58367056849314
IRIDIUM 94 [P]          
1 27374U 02005C   18066.49244280  .00000350  00000-0  46426-4 0  9998
2 27374  86.3765 145.5944 0141145 349.1975  10.6215 14.69661883853694
IRIDIUM 95 [+]          
1 27375U 02005D   18066.43180945  .00000163  00000-0  51150-4 0  9992
2 27375  86.4018 177.1782 0001596  78.2216 281.9159 14.34218270848640
IRIDIUM 96 [P]          
1 27376U 02005E   18066.46927161  .00027703 -79249-6  31609-3 0  9998
2 27376  86.3845 204.4748 0312827 237.6889 119.3709 15.20277612854488
IRIDIUM 97 [+]          
1 27450U 02031A   18066.53778343  .00000072  00000-0  17000-4 0  9996
2 27450  86.4259 208.8149 0002125  91.3280 268.8161 14.38707554827978
IRIDIUM 98 [+]          
1 27451U 02031B   18066.47996254 -.00000072  00000-0 -32618-4 0  9997
2 27451  86.3917 272.0864 0001894  97.9195 262.2216 14.34217162829041
